STARLINK-1637           
1 46133U 20057S   23324.58631047  .00000965  00000+0  83666-4 0  9991
2 46133  53.0542  87.9873 0001121  89.0388 271.0729 15.06403452181256
STARLINK-1639           
1 46135U 20057U   23324.60474265  .00002820  00000+0  20805-3 0  9990
2 46135  53.0560  87.9104 0001088  90.0161 270.0952 15.06416368180007
STARLINK-1643           
1 46136U 20057V   23324.59092519  .00000930  00000+0  81295-4 0  9998
2 46136  53.0552 118.0079 0001377  90.1856 269.9291 15.06399400179580
STARLINK-1586           
1 46137U 20057W   23324.60658311  .00002419  00000+0  18117-3 0  9995
2 46137  53.0545 107.8984 0001188  97.6565 262.4559 15.06408828179729
STARLINK-1590           
1 46138U 20057X   23324.60475267  .00002385  00000+0  17901-3 0  9995
2 46138  53.0540 127.9075 0001589  80.0187 280.0981 15.06394635179444
STARLINK-1594           
1 46140U 20057Z   23324.56419908  .00004175  00000+0  29886-3 0  9997
2 46140  53.0549  88.0892 0001012  82.5713 277.5391 15.06418108181264
STARLINK-1596           
1 46141U 20057AA  23324.60842733  .00002191  00000+0  16590-3 0  9993
2 46141  53.0552  87.8883 0001214  88.8233 271.2895 15.06404549180001
STARLINK-1597           
1 46142U 20057AB  23324.49416828 -.00000327  00000+0 -30764-5 0  9995
2 46142  53.0547 128.4039 0001400  90.7438 269.3712 15.06404376179425
STARLINK-1606           
1 46144U 20057AD  23324.59184834  .00000891  00000+0  78737-4 0  9992
2 46144  53.0553 107.9621 0001498  93.8149 266.3011 15.06400185167973
STARLINK-1608           
1 46146U 20057AF  23324.17349873  .00000007  00000+0  19398-4 0  9991
2 46146  53.0544 129.8414 0001503  95.1686 264.9475 15.06394252179389
STARLINK-1611           
1 46147U 20057AG  23324.61948722 -.00004308  00000+0 -27033-3 0  9993
2 46147  53.0542 127.8370 0002519  89.4187 270.7091 15.06414182180709
STARLINK-1616           
1 46148U 20057AH  23324.55867024  .00002048  00000+0  15635-3 0  9994
2 46148  53.0537 108.1116 0001438  93.0522 267.0631 15.06405192179716
STARLINK-1620           
1 46149U 20057AJ  23324.57245897  .00007341  00000+0  51097-3 0  9998
2 46149  53.0531 108.0392 0001345  90.5117 269.6026 15.06417732180996
STARLINK-1629           
1 46150U 20057AK  23324.50154119  .00000483  00000+0  51348-4 0  9999
2 46150  53.0530 128.3684 0001406  91.3406 268.7744 15.06400461179439
STARLINK-1631           
1 46151U 20057AL  23324.61029993 -.00002139  00000+0 -12485-3 0  9993
2 46151  53.0539 107.8819 0001454  88.8858 271.2298 15.06378891179722
STARLINK-1634           
1 46152U 20057AM  23324.46471220  .00010531  00000+0  72542-3 0  9994
2 46152  53.0542 128.5729 0001368 102.8547 257.2595 15.06368681179420
STARLINK-1636           
1 46153U 20057AN  23324.56235201  .00000555  00000+0  56112-4 0  9994
2 46153  53.0540 108.0938 0001397  88.0227 272.0922 15.06405479179714
