[{"OBJECT_NAME":"STARLINK-1637","OBJECT_ID":"2020-057S","EPOCH":"2023-11-20T14:04:17.224608","MEAN_MOTION":15.06403452,"ECCENTRICITY":0.0001121,"INCLINATION":53.0542,"RA_OF_ASC_NODE":87.9873,"ARG_OF_PERICENTER":89.0388,"MEAN_ANOMALY":271.0729,"EPHEMERIS_TYPE":0,"CLASSIFICATION_TYPE":"U","NORAD_CAT_ID":46133,"ELEMENT_SET_NO":999,"REV_AT_EPOCH":18125,"BSTAR":8.3666e-5,"MEAN_MOTION_DOT":9.65e-6,"MEAN_MOTION_DDOT":0},{"OBJECT_NAME":"STARLINK-1639","OBJECT_ID":"2020-057U","EPOCH":"2023-11-20T14:30:49.764960","MEAN_MOTION":15.06416368,"ECCENTRICITY":0.0001088,"INCLINATION":53.056,"RA_OF_ASC_NODE":87.9104,"ARG_OF_PERICENTER":90.0161,"MEAN_ANOMALY":270.0952,"EPHEMERIS_TYPE":0,"CLASSIFICATION_TYPE":"U","NORAD_CAT_ID":46135,"ELEMENT_SET_NO":999,"REV_AT_EPOCH":18000,"BSTAR":0.00020805,"MEAN_MOTION_DOT":2.82e-5,"MEAN_MOTION_DDOT":0},{"OBJECT_NAME":"STARLINK-1643","OBJECT_ID":"2020-057V","EPOCH":"2023-11-20T14:10:55.936416","MEAN_MOTION":15.063994,"ECCENTRICITY":0.0001377,"INCLINATION":53.0552,"RA_OF_ASC_NODE":118.0079,"ARG_OF_PERICENTER":90.1856,"MEAN_ANOMALY":269.9291,"EPHEMERIS_TYPE":0,"CLASSIFICATION_TYPE":"U","NORAD_CAT_ID":46136,"ELEMENT_SET_NO":999,"REV_AT_EPOCH":17958,"BSTAR":8.1295e-5,"MEAN_MOTION_DOT":9.3e-6,"MEAN_MOTION_DDOT":0},{"OBJECT_NAME":"STARLINK-1586","OBJECT_ID":"2020-057W","EPOCH":"2023-11-20T14:33:28.780704","MEAN_MOTION":15.06408828,"ECCENTRICITY":0.0001188,"INCLINATION":53.0545,"RA_OF_ASC_NODE":107.8984,"ARG_OF_PERICENTER":97.6565,"MEAN_ANOMALY":262.4559,"EPHEMERIS_TYPE":0,"CLASSIFICATION_TYPE":"U","NORAD_CAT_ID":46137,"ELEMENT_SET_NO":999,"REV_AT_EPOCH":17972,"BSTAR":0.00018117,"MEAN_MOTION_DOT":2.419e-5,"MEAN_MOTION_DDOT":0},{"OBJECT_NAME":"STARLINK-1590","OBJECT_ID":"2020-057X","EPOCH":"2023-11-20T14:30:50.630688","MEAN_MOTION":15.06394635,"ECCENTRICITY":0.0001589,"INCLINATION":53.054,"RA_OF_ASC_NODE":127.9075,"ARG_OF_PERICENTER":80.0187,"MEAN_ANOMALY":280.0981,"EPHEMERIS_TYPE":0,"CLASSIFICATION_TYPE":"U","NORAD_CAT_ID":46138,"ELEMENT_SET_NO":999,"REV_AT_EPOCH":17944,"BSTAR":0.00017901,"MEAN_MOTION_DOT":2.385e-5,"MEAN_MOTION_DDOT":0},{"OBJECT_NAME":"STARLINK-1594","OBJECT_ID":"2020-057Z","EPOCH":"2023-11-20T13:32:26.800512","MEAN_MOTION":15.06418108,"ECCENTRICITY":0.0001012,"INCLINATION":53.0549,"RA_OF_ASC_NODE":88.0892,"ARG_OF_PERICENTER":82.5713,"MEAN_ANOMALY":277.5391,"EPHEMERIS_TYPE":0,"CLASSIFICATION_TYPE":"U","NORAD_CAT_ID":46140,"ELEMENT_SET_NO":999,"REV_AT_EPOCH":18126,"BSTAR":0.00029886,"MEAN_MOTION_DOT":4.175e-5,"MEAN_MOTION_DDOT":0},{"OBJECT_NAME":"STARLINK-1596","OBJECT_ID":"2020-057AA","EPOCH":"2023-11-20T14:36:08.121312","MEAN_MOTION":15.06404549,"ECCENTRICITY":0.0001214,"INCLINATION":53.0552,"RA_OF_ASC_NODE":87.8883,"ARG_OF_PERICENTER":88.8233,"MEAN_ANOMALY":271.2895,"EPHEMERIS_TYPE":0,"CLASSIFICATION_TYPE":"U","NORAD_CAT_ID":46141,"ELEMENT_SET_NO":999,"REV_AT_EPOCH":18000,"BSTAR":0.0001659,"MEAN_MOTION_DOT":2.191e-5,"MEAN_MOTION_DDOT":0},{"OBJECT_NAME":"STARLINK-1597","OBJECT_ID":"2020-057AB","EPOCH":"2023-11-20T11:51:36.139392","MEAN_MOTION":15.06404376,"ECCENTRICITY":0.00014,"INCLINATION":53.0547,"RA_OF_ASC_NODE":128.4039,"ARG_OF_PERICENTER":90.7438,"MEAN_ANOMALY":269.3712,"EPHEMERIS_TYPE":0,"CLASSIFICATION_TYPE":"U","NORAD_CAT_ID":46142,"ELEMENT_SET_NO":999,"REV_AT_EPOCH":17942,"BSTAR":-3.0764e-6,"MEAN_MOTION_DOT":-3.27e-6,"MEAN_MOTION_DDOT":0},{"OBJECT_NAME":"STARLINK-1606","OBJECT_ID":"2020-057AD","EPOCH":"2023-11-20T14:12:15.696576","MEAN_MOTION":15.06400185,"ECCENTRICITY":0.0001498,"INCLINATION":53.0553,"RA_OF_ASC_NODE":107.9621,"ARG_OF_PERICENTER":93.8149,"MEAN_ANOMALY":266.3011,"EPHEMERIS_TYPE":0,"CLASSIFICATION_TYPE":"U","NORAD_CAT_ID":46144,"ELEMENT_SET_NO":999,"REV_AT_EPOCH":16797,"BSTAR":7.8737e-5,"MEAN_MOTION_DOT":8.91e-6,"MEAN_MOTION_DDOT":0},{"OBJECT_NAME":"STARLINK-1608","OBJECT_ID":"2020-057AF","EPOCH":"2023-11-20T04:09:50.290272","MEAN_MOTION":15.06394252,"ECCENTRICITY":0.0001503,"INCLINATION":53.0544,"RA_OF_ASC_NODE":129.8414,"ARG_OF_PERICENTER":95.1686,"MEAN_ANOMALY":264.9475,"EPHEMERIS_TYPE":0,"CLASSIFICATION_TYPE":"U","NORAD_CAT_ID":46146,"ELEMENT_SET_NO":999,"REV_AT_EPOCH":17938,"BSTAR":1.9398e-5,"MEAN_MOTION_DOT":7.0e-8,"MEAN_MOTION_DDOT":0},{"OBJECT_NAME":"STARLINK-1611","OBJECT_ID":"2020-057AG","EPOCH":"2023-11-20T14:52:03.695808","MEAN_MOTION":15.06414182,"ECCENTRICITY":0.0002519,"INCLINATION":53.0542,"RA_OF_ASC_NODE":127.837,"ARG_OF_PERICENTER":89.4187,"MEAN_ANOMALY":270.7091,"EPHEMERIS_TYPE":0,"CLASSIFICATION_TYPE":"U","NORAD_CAT_ID":46147,"ELEMENT_SET_NO":999,"REV_AT_EPOCH":18070,"BSTAR":-0.00027033,"MEAN_MOTION_DOT":-4.308e-5,"MEAN_MOTION_DDOT":0},{"OBJECT_NAME":"STARLINK-1616","OBJECT_ID":"2020-057AH","EPOCH":"2023-11-20T13:24:29.108736","MEAN_MOTION":15.06405192,"ECCENTRICITY":0.0001438,"INCLINATION":53.0537,"RA_OF_ASC_NODE":108.1116,"ARG_OF_PERICENTER":93.0522,"MEAN_ANOMALY":267.0631,"EPHEMERIS_TYPE":0,"CLASSIFICATION_TYPE":"U","NORAD_CAT_ID":46148,"ELEMENT_SET_NO":999,"REV_AT_EPOCH":17971,"BSTAR":0.00015635,"MEAN_MOTION_DOT":2.048e-5,"MEAN_MOTION_DDOT":0},{"OBJECT_NAME":"STARLINK-1620","OBJECT_ID":"2020-057AJ","EPOCH":"2023-11-20T13:44:20.455008","MEAN_MOTION":15.06417732,"ECCENTRICITY":0.0001345,"INCLINATION":53.0531,"RA_OF_ASC_NODE":108.0392,"ARG_OF_PERICENTER":90.5117,"MEAN_ANOMALY":269.6026,"EPHEMERIS_TYPE":0,"CLASSIFICATION_TYPE":"U","NORAD_CAT_ID":46149,"ELEMENT_SET_NO":999,"REV_AT_EPOCH":18099,"BSTAR":0.00051097,"MEAN_MOTION_DOT":7.341e-5,"MEAN_MOTION_DDOT":0},{"OBJECT_NAME":"STARLINK-1629","OBJECT_ID":"2020-057AK","EPOCH":"2023-11-20T12:02:13.158816","MEAN_MOTION":15.06400461,"ECCENTRICITY":0.0001406,"INCLINATION":53.053,"RA_OF_ASC_NODE":128.3684,"ARG_OF_PERICENTER":91.3406,"MEAN_ANOMALY":268.7744,"EPHEMERIS_TYPE":0,"CLASSIFICATION_TYPE":"U","NORAD_CAT_ID":46150,"ELEMENT_SET_NO":999,"REV_AT_EPOCH":17943,"BSTAR":5.1348e-5,"MEAN_MOTION_DOT":4.83e-6,"MEAN_MOTION_DDOT":0},{"OBJECT_NAME":"STARLINK-1631","OBJECT_ID":"2020-057AL","EPOCH":"2023-11-20T14:38:49.913952","MEAN_MOTION":15.06378891,"ECCENTRICITY":0.0001454,"INCLINATION":53.0539,"RA_OF_ASC_NODE":107.8819,"ARG_OF_PERICENTER":88.8858,"MEAN_ANOMALY":271.2298,"EPHEMERIS_TYPE":0,"CLASSIFICATION_TYPE":"U","NORAD_CAT_ID":46151,"ELEMENT_SET_NO":999,"REV_AT_EPOCH":17972,"BSTAR":-0.00012485,"MEAN_MOTION_DOT":-2.139e-5,"MEAN_MOTION_DDOT":0},{"OBJECT_NAME":"STARLINK-1634","OBJECT_ID":"2020-057AM","EPOCH":"2023-11-20T11:09:11.134080","MEAN_MOTION":15.06368681,"ECCENTRICITY":0.0001368,"INCLINATION":53.0542,"RA_OF_ASC_NODE":128.5729,"ARG_OF_PERICENTER":102.8547,"MEAN_ANOMALY":257.2595,"EPHEMERIS_TYPE":0,"CLASSIFICATION_TYPE":"U","NORAD_CAT_ID":46152,"ELEMENT_SET_NO":999,"REV_AT_EPOCH":17942,"BSTAR":0.00072542,"MEAN_MOTION_DOT":0.00010531,"MEAN_MOTION_DDOT":0},{"OBJECT_NAME":"STARLINK-1636","OBJECT_ID":"2020-057AN","EPOCH":"2023-11-20T13:29:47.213664","MEAN_MOTION":15.06405479,"ECCENTRICITY":0.0001397,"INCLINATION":53.054,"RA_OF_ASC_NODE":108.0938,"ARG_OF_PERICENTER":88.0227,"MEAN_ANOMALY":272.0922,"EPHEMERIS_TYPE":0,"CLASSIFICATION_TYPE":"U","NORAD_CAT_ID":46153,"ELEMENT_SET_NO":999,"REV_AT_EPOCH":17971,"BSTAR":5.6112e-5,"MEAN_MOTION_DOT":5.55e-6,"MEAN_MOTION_DDOT":0}]
